{"type": "FeatureCollection", "features": [ {"type": "Feature", "properties": {"norad_id": 29892, "name": "FENGYUN 1C DEB", "group": "fengyun-1c-debris", "lat": -11.597188520038909, "lon": 127.27004403940447, "alt_km": 666.8373542540312, "timestamp": "2025-12-04T07:39:36.408053+00:00", "meta": {"OBJECT_NAME": "FENGYUN 1C DEB", "OBJECT_ID": "1999-025GN", "EPOCH": "2025-12-03T22:13:30.420192", "MEAN_MOTION": 14.31908586, "ECCENTRICITY": 0.01908834, "INCLINATION": 99.1811, "RA_OF_ASC_NODE": 124.9521, "ARG_OF_PERICENTER": 322.891, "MEAN_ANOMALY": 159.1321, "EPHEMERIS_TYPE": 0, "CLASSIFICATION_TYPE": "U", "NORAD_CAT_ID": 29892, "ELEMENT_SET_NO": 999, "REV_AT_EPOCH": 96523, "BSTAR": 0.0054360422, "MEAN_MOTION_DOT": 0.0001779, "MEAN_MOTION_DDOT": 0}, "tle": {"line1": "1 29892U 99025GN  25337.92604653  .00017790  00000+0  54360-2 0  9993", "line2": "2 29892  99.1811 124.9521 0190883 322.8910 159.1321 14.31908586965231"}}, "geometry": {"type": "Point", "coordinates": [127.27004403940447, -11.597188520038909]}}, {"type": "Feature", "properties": {"norad_id": 29893, "name": "FENGYUN 1C DEB", "group": "fengyun-1c-debris", "lat": -80.38142781666944, "lon": -167.44377668293708, "alt_km": 969.7324223838596, "timestamp": "2025-12-04T07:39:36.408062+00:00", "meta": {"OBJECT_NAME": "FENGYUN 1C DEB", "OBJECT_ID": "1999-025GP", "EPOCH": "2025-12-03T06:08:45.882240", "MEAN_MOTION": 13.79453063, "ECCENTRICITY": 0.0173334, "INCLINATION": 98.5539, "RA_OF_ASC_NODE": 74.2293, "ARG_OF_PERICENTER": 179.0088, "MEAN_ANOMALY": 208.1536, "EPHEMERIS_TYPE": 0, "CLASSIFICATION_TYPE": "U", "NORAD_CAT_ID": 29893, "ELEMENT_SET_NO": 999, "REV_AT_EPOCH": 95009, "BSTAR": 0.00033803, "MEAN_MOTION_DOT": 3.51e-06, "MEAN_MOTION_DDOT": 0}, "tle": {"line1": "1 29893U 99025GP  25337.25608660  .00000351  00000+0  33803-3 0  9997", "line2": "2 29893  98.5539  74.2293 0173334 179.0088 208.1536 13.79453063950092"}}, "geometry": {"type": "Point", "coordinates": [-167.44377668293708, -80.38142781666944]}}, {"type": "Feature", "properties": {"norad_id": 29894, "name": "FENGYUN 1C DEB", "group": "fengyun-1c-debris", "lat": -63.96343853649611, "lon": -167.41707713642032, "alt_km": 1091.539061490943, "timestamp": "2025-12-04T07:39:36.408072+00:00", "meta": {"OBJECT_NAME": "FENGYUN 1C DEB", "OBJECT_ID": "1999-025GQ", "EPOCH": "2025-12-03T20:20:32.777376", "MEAN_MOTION": 13.80957185, "ECCENTRICITY": 0.01688825, "INCLINATION": 99.4868, "RA_OF_ASC_NODE": 32.1248, "ARG_OF_PERICENTER": 68.4941, "MEAN_ANOMALY": 353.8986, "EPHEMERIS_TYPE": 0, "CLASSIFICATION_TYPE": "U", "NORAD_CAT_ID": 29894, "ELEMENT_SET_NO": 999, "REV_AT_EPOCH": 94954, "BSTAR": 0.00083478332, "MEAN_MOTION_DOT": 9.37e-06, "MEAN_MOTION_DDOT": 0}, "tle": {"line1": "1 29894U 99025GQ  25337.84760159  .00000937  00000+0  83478-3 0  9998", "line2": "2 29894  99.4868  32.1248 0168882  68.4941 353.8986 13.80957185949543"}}, "geometry": {"type": "Point", "coordinates": [-167.41707713642032, -63.96343853649611]}}, {"type": "Feature", "properties": {"norad_id": 29895, "name": "FENGYUN 1C DEB", "group": "fengyun-1c-debris", "lat": -57.602123863779575, "lon": -110.05136840646028, "alt_km": 1002.1182900571202, "timestamp": "2025-12-04T07:39:36.408082+00:00", "meta": {"OBJECT_NAME": "FENGYUN 1C DEB", "OBJECT_ID": "1999-025GR", "EPOCH": "2025-12-03T12:04:31.257120", "MEAN_MOTION": 14.08099952, "ECCENTRICITY": 0.0299694, "INCLINATION": 99.886, "RA_OF_ASC_NODE": 85.005, "ARG_OF_PERICENTER": 9.0501, "MEAN_ANOMALY": 58.2394, "EPHEMERIS_TYPE": 0, "CLASSIFICATION_TYPE": "U", "NORAD_CAT_ID": 29895, "ELEMENT_SET_NO": 999, "REV_AT_EPOCH": 95394, "BSTAR": 0.0020880789, "MEAN_MOTION_DOT": 5.321e-05, "MEAN_MOTION_DDOT": 0}, "tle": {"line1": "1 29895U 99025GR  25337.50313955  .00005321  00000+0  20881-2 0  9990", "line2": "2 29895  99.8860  85.0050 0299694   9.0501  58.2394 14.08099952953945"}}, "geometry": {"type": "Point", "coordinates": [-110.05136840646028, -57.602123863779575]}}, {"type": "Feature", "properties": {"norad_id": 29896, "name": "FENGYUN 1C DEB", "group": "fengyun-1c-debris", "lat": 12.087876018387417, "lon": 52.318733159902315, "alt_km": 888.1801298415057, "timestamp": "2025-12-04T07:39:36.408091+00:00", "meta": {"OBJECT_NAME": "FENGYUN 1C DEB", "OBJECT_ID": "1999-025GS", "EPOCH": "2025-12-02T16:28:55.441920", "MEAN_MOTION": 13.65350262, "ECCENTRICITY": 0.02393328, "INCLINATION": 99.4222, "RA_OF_ASC_NODE": 228.6942, "ARG_OF_PERICENTER": 127.7889, "MEAN_ANOMALY": 298.395, "EPHEMERIS_TYPE": 0, "CLASSIFICATION_TYPE": "U", "NORAD_CAT_ID": 29896, "ELEMENT_SET_NO": 999, "REV_AT_EPOCH": 93905, "BSTAR": 0.00062723295, "MEAN_MOTION_DOT": 5.79e-06, "MEAN_MOTION_DDOT": 0}, "tle": {"line1": "1 29896U 99025GS  25336.68675280  .00000579  00000+0  62723-3 0  9993", "line2": "2 29896  99.4222 228.6942 0239332 127.7889 298.3950 13.65350262939056"}}, "geometry": {"type": "Point", "coordinates": [52.318733159902315, 12.087876018387417]}}, {"type": "Feature", "properties": {"norad_id": 29897, "name": "FENGYUN 1C DEB", "group": "fengyun-1c-debris", "lat": -25.20141989927754, "lon": -152.2968048495185, "alt_km": 1270.2426515974603, "timestamp": "2025-12-04T07:39:36.408100+00:00", "meta": {"OBJECT_NAME": "FENGYUN 1C DEB", "OBJECT_ID": "1999-025GT", "EPOCH": "2025-12-03T02:27:55.814976", "MEAN_MOTION": 13.57132747, "ECCENTRICITY": 0.02963377, "INCLINATION": 98.6289, "RA_OF_ASC_NODE": 202.5365, "ARG_OF_PERICENTER": 164.0265, "MEAN_ANOMALY": 350.1997, "EPHEMERIS_TYPE": 0, "CLASSIFICATION_TYPE": "U", "NORAD_CAT_ID": 29897, "ELEMENT_SET_NO": 999, "REV_AT_EPOCH": 92809, "BSTAR": 0.0022144693, "MEAN_MOTION_DOT": 2.062e-05, "MEAN_MOTION_DDOT": 0}, "tle": {"line1": "1 29897U 99025GT  25337.10272934  .00002062  00000+0  22145-2 0  9993", "line2": "2 29897  98.6289 202.5365 0296337 164.0265 350.1997 13.57132747928098"}}, "geometry": {"type": "Point", "coordinates": [-152.2968048495185, -25.20141989927754]}}, {"type": "Feature", "properties": {"norad_id": 29898, "name": "FENGYUN 1C DEB", "group": "fengyun-1c-debris", "lat": -13.622649514743546, "lon": -26.131683848900263, "alt_km": 1216.2919565211232, "timestamp": "2025-12-04T07:39:36.408110+00:00", "meta": {"OBJECT_NAME": "FENGYUN 1C DEB", "OBJECT_ID": "1999-025GU", "EPOCH": "2025-12-03T11:28:25.889952", "MEAN_MOTION": 13.70217466, "ECCENTRICITY": 0.04274401, "INCLINATION": 98.2219, "RA_OF_ASC_NODE": 331.1385, "ARG_OF_PERICENTER": 214.3285, "MEAN_ANOMALY": 301.7536, "EPHEMERIS_TYPE": 0, "CLASSIFICATION_TYPE": "U", "NORAD_CAT_ID": 29898, "ELEMENT_SET_NO": 999, "REV_AT_EPOCH": 93034, "BSTAR": 0.0028909838, "MEAN_MOTION_DOT": 4.834e-05, "MEAN_MOTION_DDOT": 0}, "tle": {"line1": "1 29898U 99025GU  25337.47807743  .00004834  00000+0  28910-2 0  9991", "line2": "2 29898  98.2219 331.1385 0427440 214.3285 301.7536 13.70217466930340"}}, "geometry": {"type": "Point", "coordinates": [-26.131683848900263, -13.622649514743546]}}, {"type": "Feature", "properties": {"norad_id": 29899, "name": "FENGYUN 1C DEB", "group": "fengyun-1c-debris", "lat": -60.252076714792025, "lon": 150.53191184053406, "alt_km": 1376.2122076072274, "timestamp": "2025-12-04T07:39:36.408119+00:00", "meta": {"OBJECT_NAME": "FENGYUN 1C DEB", "OBJECT_ID": "1999-025GV", "EPOCH": "2025-12-02T09:18:02.992896", "MEAN_MOTION": 13.37487819, "ECCENTRICITY": 0.03536515, "INCLINATION": 98.6612, "RA_OF_ASC_NODE": 133.4158, "ARG_OF_PERICENTER": 104.9635, "MEAN_ANOMALY": 259.0924, "EPHEMERIS_TYPE": 0, "CLASSIFICATION_TYPE": "U", "NORAD_CAT_ID": 29899, "ELEMENT_SET_NO": 999, "REV_AT_EPOCH": 91946, "BSTAR": 0.00023856557, "MEAN_MOTION_DOT": 1.47e-06, "MEAN_MOTION_DDOT": 0}, "tle": {"line1": "1 29899U 99025GV  25336.38753464  .00000147  00000+0  23857-3 0  9990", "line2": "2 29899  98.6612 133.4158 0353651 104.9635 259.0924 13.37487819919468"}}, "geometry": {"type": "Point", "coordinates": [150.53191184053406, -60.252076714792025]}}, {"type": "Feature", "properties": {"norad_id": 29901, "name": "FENGYUN 1C DEB", "group": "fengyun-1c-debris", "lat": -72.36388470481226, "lon": -58.59725440033006, "alt_km": 958.8605182391557, "timestamp": "2025-12-04T07:39:36.408128+00:00", "meta": {"OBJECT_NAME": "FENGYUN 1C DEB", "OBJECT_ID": "1999-025GX", "EPOCH": "2025-12-03T17:51:00.323136", "MEAN_MOTION": 13.3324564, "ECCENTRICITY": 0.03792766, "INCLINATION": 98.7447, "RA_OF_ASC_NODE": 149.8659, "ARG_OF_PERICENTER": 307.774, "MEAN_ANOMALY": 69.7834, "EPHEMERIS_TYPE": 0, "CLASSIFICATION_TYPE": "U", "NORAD_CAT_ID": 29901, "ELEMENT_SET_NO": 999, "REV_AT_EPOCH": 91799, "BSTAR": 0.00051957128, "MEAN_MOTION_DOT": 3.44e-06, "MEAN_MOTION_DDOT": 0}, "tle": {"line1": "1 29901U 99025GX  25337.74375374  .00000344  00000+0  51957-3 0  9996", "line2": "2 29901  98.7447 149.8659 0379276 307.7740  69.7834 13.33245640917999"}}, "geometry": {"type": "Point", "coordinates": [-58.59725440033006, -72.36388470481226]}}, {"type": "Feature", "properties": {"norad_id": 29904, "name": "FENGYUN 1C DEB", "group": "fengyun-1c-debris", "lat": -16.53454881485112, "lon": 18.363520817733704, "alt_km": 600.3406853377064, "timestamp": "2025-12-04T07:39:36.408137+00:00", "meta": {"OBJECT_NAME": "FENGYUN 1C DEB", "OBJECT_ID": "1999-025HA", "EPOCH": "2025-12-03T08:27:34.817184", "MEAN_MOTION": 14.4441957, "ECCENTRICITY": 0.0208331, "INCLINATION": 99.0431, "RA_OF_ASC_NODE": 14.6253, "ARG_OF_PERICENTER": 346.6326, "MEAN_ANOMALY": 12.9393, "EPHEMERIS_TYPE": 0, "CLASSIFICATION_TYPE": "U", "NORAD_CAT_ID": 29904, "ELEMENT_SET_NO": 999, "REV_AT_EPOCH": 98928, "BSTAR": 0.0005997, "MEAN_MOTION_DOT": 2.636e-05, "MEAN_MOTION_DDOT": 0}, "tle": {"line1": "1 29904U 99025HA  25337.35248631  .00002636  00000+0  59970-3 0  9990", "line2": "2 29904  99.0431  14.6253 0208331 346.6326  12.9393 14.44419570989282"}}, "geometry": {"type": "Point", "coordinates": [18.363520817733704, -16.53454881485112]}}]}